[{"OBJECT_NAME":"SITRO-AIS 13","OBJECT_ID":"2024-199J","EPOCH":"2026-03-09T21:50:28.432320","MEAN_MOTION":14.9731664,"ECCENTRICITY":0.00074694,"INCLINATION":97.3312,"RA_OF_ASC_NODE":274.5755,"ARG_OF_PERICENTER":53.5174,"MEAN_ANOMALY":306.6736,"EPHEMERIS_TYPE":0,"CLASSIFICATION_TYPE":"U","NORAD_CAT_ID":61743,"ELEMENT_SET_NO":999,"REV_AT_EPOCH":11713,"BSTAR":0.00039590089,"MEAN_MOTION_DOT":4.542e-5,"MEAN_MOTION_DDOT":0},{"OBJECT_NAME":"STARLINK-33946","OBJECT_ID":"2025-102N","EPOCH":"2026-03-09T13:29:01.639392","MEAN_MOTION":14.98331113,"ECCENTRICITY":0.0003559,"INCLINATION":70.0015,"RA_OF_ASC_NODE":114.7583,"ARG_OF_PERICENTER":266.8862,"MEAN_ANOMALY":93.189,"EPHEMERIS_TYPE":0,"CLASSIFICATION_TYPE":"U","NORAD_CAT_ID":64034,"ELEMENT_SET_NO":999,"REV_AT_EPOCH":4598,"BSTAR":9.762e-5,"MEAN_MOTION_DOT":1.072e-5,"MEAN_MOTION_DDOT":0}]
